ONEWEB-0171             
1 48070U 21025AE  24342.54095757  .00000306  00000+0  80265-3 0  9998
2 48070  87.8932  70.9625 0001567 103.7772 256.3532 13.13470779180549
ONEWEB-0172             
1 48071U 21025AF  24342.52032527 -.00000229  00000+0 -66159-3 0  9995
2 48071  87.8934  70.9328 0001511 107.1490 252.9804 13.13470706181439
ONEWEB-0174             
1 48072U 21025AG  24342.27432415 -.00000163  00000+0 -48130-3 0  9994
2 48072  87.8934  70.9960 0001761 106.7548 253.3775 13.13469059180720
ONEWEB-0175             
1 48073U 21025AH  24342.75995612 -.00000030  00000+0 -11811-3 0  9990
2 48073  87.8926  70.8775 0001377  94.7103 265.4183 13.13469275180447
ONEWEB-0177             
1 48074U 21025AJ  24342.77266661  .00000352  00000+0  92891-3 0  9990
2 48074  87.8928  70.8857 0001645 117.0059 243.1239 13.13470596180632
ONEWEB-0178             
1 48075U 21025AK  24342.79026315  .00000247  00000+0  64119-3 0  9998
2 48075  87.8937  70.9121 0001623 111.5696 248.5606 13.13468297180687
ONEWEB-0108             
1 48076U 21025AL  24342.52190849 -.00000182  00000+0 -53353-3 0  9992
2 48076  87.8925  70.9318 0001880 101.0267 259.1074 13.13470037180576
ONEWEB-0169             
1 48077U 21025AM  24342.55365173  .00000391  00000+0  10364-2 0  9994
2 48077  87.8929  70.9401 0001924 100.6419 259.4926 13.13469442179235
